NORAD_CAT_ID,OBJECT_NAME,OBJECT_TYPE,EPOCH,MEAN_MOTION,ECCENTRICITY,INCLINATION,RA_OF_ASC_NODE,ARG_OF_PERICENTER,MEAN_ANOMALY,BSTAR,MEAN_MOTION_DOT,MEAN_MOTION_DDOT,TLE_LINE0,TLE_LINE1,TLE_LINE2,SEMIMAJOR_AXIS,PERIOD,APOGEE,PERIGEE,DECAYED
49422.0,STARLINK-3161,PAYLOAD,2023-12-12 04:02:50,15.08840094,0.0001936,53.2186,303.6034,94.3679,265.7534,9.1729e-05,1.172e-05,0.0,0 STARLINK-3161,1 49422U 21104Q   23346.16864544  .00001172  00000-0  91729-4 0  9998,2 49422  53.2186 303.6034 0001936  94.3679 265.7534 15.08840094116160,6917.88,95.438,541.084,538.406,0.0
49422.0,STARLINK-3161,PAYLOAD,2023-12-13 03:53:37,15.08844021,0.0001999,53.219,299.1458,101.7488,258.3728,9.4636e-05,1.218e-05,0.0,0 STARLINK-3161,1 49422U 21104Q   23347.16224378  .00001218  00000-0  94636-4 0  9995,2 49422  53.2190 299.1458 0001999 101.7488 258.3728 15.08844021115205,6917.868,95.437,541.116,538.35,0.0
49422.0,STARLINK-3161,PAYLOAD,2023-12-14 03:44:24,15.08843113,0.0002057,53.2193,294.6876,105.9495,254.1723,6.7527e-05,7.87e-06,0.0,0 STARLINK-3161,1 49422U 21104Q   23348.15584390  .00000787  00000-0  67527-4 0  9997,2 49422  53.2193 294.6876 0002057 105.9495 254.1723 15.08843113116461,6917.871,95.437,541.159,538.313,0.0
49422.0,STARLINK-3161,PAYLOAD,2023-12-15 01:59:48,15.08841642,0.0002115,53.2195,290.5257,110.0161,250.1059,5.4391e-05,5.78e-06,0.0,0 STARLINK-3161,1 49422U 21104Q   23349.08320452  .00000578  00000-0  54391-4 0  9990,2 49422  53.2195 290.5257 0002115 110.0161 250.1059 15.08841642115498,6917.875,95.437,541.204,538.277,0.0
49422.0,STARLINK-3161,PAYLOAD,2023-12-16 03:26:00,15.08833368,0.0001845,53.2194,285.769,73.6195,286.5,-3.7842e-05,-8.9e-06,0.0,0 STARLINK-3161,1 49422U 21104Q   23350.14305829 -.00000890  00000-0 -37842-4 0  9991,2 49422  53.2194 285.7690 0001845  73.6195 286.5000 15.08833368116760,6917.901,95.438,541.042,538.489,0.0
49422.0,STARLINK-3161,PAYLOAD,2023-12-17 03:16:46,15.08830299,0.0001943,53.2192,281.3052,76.4704,283.6504,0.00035129,5.306e-05,0.0,0 STARLINK-3161,1 49422U 21104Q   23351.13665016  .00005306  00000-0  35129-3 0  9998,2 49422  53.2192 281.3052 0001943  76.4704 283.6504 15.08830299116912,6917.91,95.438,541.119,538.431,0.0
49422.0,STARLINK-3161,PAYLOAD,2023-12-18 01:32:09,15.08850308,0.0001822,53.2185,277.1459,77.4613,282.6583,0.0001802,2.582e-05,0.0,0 STARLINK-3161,1 49422U 21104Q   23352.06400346  .00002582  00000-0  18020-3 0  9998,2 49422  53.2185 277.1459 0001822  77.4613 282.6583 15.08850308117059,6917.849,95.437,540.974,538.453,0.0
49422.0,STARLINK-3161,PAYLOAD,2023-12-18 22:12:11,15.08839336,0.0001524,53.2191,273.2767,82.2126,277.904,-4.1635e-05,-9.51e-06,0.0,0 STARLINK-3161,1 49422U 21104Q   23352.92513538 -.00000951  00000-0 -41635-4 0  9990,2 49422  53.2191 273.2767 0001524  82.2126 277.9040 15.08839336116071,6917.882,95.438,540.802,538.693,0.0
49422.0,STARLINK-3161,PAYLOAD,2023-12-19 01:22:57,15.08838767,0.0001651,53.2186,272.6825,102.8625,257.2552,-5.6626e-05,-1.189e-05,0.0,0 STARLINK-3161,1 49422U 21104Q   23353.05761483 -.00001189  00000-0 -56626-4 0  9999,2 49422  53.2186 272.6825 0001651 102.8625 257.2552 15.08838767117209,6917.884,95.438,540.891,538.607,0.0
49422.0,STARLINK-3161,PAYLOAD,2023-12-19 23:38:21,15.08867616,0.0001369,53.2185,268.5183,93.676,266.4388,-0.00031684,-5.331e-05,0.0,0 STARLINK-3161,1 49422U 21104Q   23353.98496663 -.00005331  00000-0 -31684-3 0  9995,2 49422  53.2185 268.5183 0001369  93.6760 266.4388 15.08867616117341,6917.796,95.436,540.608,538.714,0.0
49422.0,STARLINK-3161,PAYLOAD,2023-12-20 21:53:45,15.08839858,0.0001362,53.2182,264.355,100.3603,259.7543,0.00018384,2.639e-05,0.0,0 STARLINK-3161,1 49422U 21104Q   23354.91233035  .00002639  00000-0  18384-3 0  9999,2 49422  53.2182 264.3550 0001362 100.3603 259.7543 15.08839858116372,6917.881,95.438,540.688,538.804,0.0
49422.0,STARLINK-3161,PAYLOAD,2023-12-21 01:04:32,15.08834658,0.0001488,53.2177,263.7588,90.5683,269.548,0.00065441,0.00010141,0.0,0 STARLINK-3161,1 49422U 21104Q   23355.04481684  .00010141  00000-0  65441-3 0  9992,2 49422  53.2177 263.7588 0001488  90.5683 269.5480 15.08834658117505,6917.897,95.438,540.791,538.732,0.0
49422.0,STARLINK-3161,PAYLOAD,2023-12-21 21:44:32,15.08837711,0.0001508,53.2174,259.8964,103.0817,257.0344,-1.1003e-05,-4.63e-06,0.0,0 STARLINK-3161,1 49422U 21104Q   23355.90593548 -.00000463  00000-0 -11003-4 0  9994,2 49422  53.2174 259.8964 0001508 103.0817 257.0344 15.08837711116523,6917.887,95.438,540.796,538.709,0.0
49422.0,STARLINK-3161,PAYLOAD,2023-12-21 23:19:55,15.08838821,0.0001741,53.2177,259.5984,111.5704,248.5474,9.2891e-06,-1.4e-06,0.0,0 STARLINK-3161,1 49422U 21104Q   23355.97217461 -.00000140  00000-0  92891-5 0  9994,2 49422  53.2177 259.5984 0001741 111.5704 248.5474 15.08838821117649,6917.884,95.438,540.953,538.545,0.0
49422.0,STARLINK-3161,PAYLOAD,2023-12-22 21:35:19,15.0883995,0.000153,53.2166,255.4325,106.5003,253.6158,-2.6136e-05,-7.04e-06,0.0,0 STARLINK-3161,1 49422U 21104Q   23356.89953529 -.00000704  00000-0 -26136-4 0  9993,2 49422  53.2166 255.4325 0001530 106.5003 253.6158 15.08839950116675,6917.881,95.438,540.804,538.687,0.0
49422.0,STARLINK-3161,PAYLOAD,2023-12-23 00:46:06,15.08843675,0.0001389,53.2161,254.8391,87.2799,272.8352,1.1946e-05,-9.8e-07,0.0,0 STARLINK-3161,1 49422U 21104Q   23357.03201448 -.00000098  00000-0  11946-4 0  9994,2 49422  53.2161 254.8391 0001389  87.2799 272.8352 15.08843675117809,6917.869,95.437,540.695,538.773,0.0
49422.0,STARLINK-3161,PAYLOAD,2023-12-23 03:56:52,15.08842522,0.0001459,53.2161,254.2391,90.6535,269.4625,0.00010888,1.445e-05,0.0,0 STARLINK-3161,1 49422U 21104Q   23357.16449507  .00001445  00000-0  10888-3 0  9997,2 49422  53.2161 254.2391 0001459  90.6535 269.4625 15.08842522116711,6917.873,95.437,540.747,538.728,0.0
49422.0,STARLINK-3161,PAYLOAD,2023-12-23 21:26:07,15.08829823,0.0001839,53.2168,250.9654,59.5334,300.5839,0.00027064,4.021e-05,0.0,0 STARLINK-3161,1 49422U 21104Q   23357.89314606  .00004021  00000-0  27064-3 0  9995,2 49422  53.2168 250.9654 0001839  59.5334 300.5839 15.08829823116821,6917.911,95.438,541.049,538.504,0.0
49422.0,STARLINK-3161,PAYLOAD,2023-12-24 02:12:16,15.08841482,0.0001582,53.2173,250.0724,87.1225,272.9948,0.00016549,2.347e-05,0.0,0 STARLINK-3161,1 49422U 21104Q   23358.09185890  .00002347  00000-0  16549-3 0  9994,2 49422  53.2173 250.0724 0001582  87.1225 272.9948 15.08841482117961,6917.876,95.437,540.835,538.646,0.0
49422.0,STARLINK-3161,PAYLOAD,2023-12-24 05:23:02,15.08842571,0.0001558,53.2171,249.4794,91.2631,268.854,0.000143,1.989e-05,0.0,0 STARLINK-3161,1 49422U 21104Q   23358.22433791  .00001989  00000-0  14300-3 0  9999,2 49422  53.2171 249.4794 0001558  91.2631 268.8540 15.08842571116879,6917.873,95.437,540.815,538.66,0.0
49422.0,STARLINK-3161,PAYLOAD,2023-12-24 21:16:54,15.08843146,0.0001454,53.2153,246.5182,70.3701,289.7448,0.00011067,1.474e-05,0.0,0 STARLINK-3161,1 49422U 21104Q   23358.88673907  .00001474  00000-0  11067-3 0  9992,2 49422  53.2153 246.5182 0001454  70.3701 289.7448 15.08843146116978,6917.871,95.437,540.742,538.73,0.0
49422.0,STARLINK-3161,PAYLOAD,2023-12-25 02:03:03,15.08852668,0.0001805,53.2154,245.6209,105.5493,254.5699,0.00021838,3.19e-05,0.0,0 STARLINK-3161,1 49422U 21104Q   23359.08545151  .00003190  00000-0  21838-3 0  9998,2 49422  53.2154 245.6209 0001805 105.5493 254.5699 15.08852668118113,6917.842,95.437,540.955,538.458,0.0
49422.0,STARLINK-3161,PAYLOAD,2023-12-25 21:07:41,15.08837719,0.0001283,53.2156,242.0512,103.0031,257.1104,-2.7818e-05,-7.31e-06,0.0,0 STARLINK-3161,1 49422U 21104Q   23359.88034080 -.00000731  00000-0 -27818-4 0  9995,2 49422  53.2156 242.0512 0001283 103.0031 257.1104 15.08837719117124,6917.887,95.438,540.64,538.865,0.0
49422.0,STARLINK-3161,PAYLOAD,2023-12-25 22:43:04,15.08839529,0.0001316,53.2151,241.754,101.8372,258.2768,5.7717e-06,-1.96e-06,0.0,0 STARLINK-3161,1 49422U 21104Q   23359.94658033 -.00000196  00000-0  57717-5 0  9998,2 49422  53.2151 241.7540 0001316 101.8372 258.2768 15.08839529118240,6917.882,95.438,540.657,538.836,0.0
49422.0,STARLINK-3161,PAYLOAD,2023-12-26 22:33:51,15.08848158,0.0001461,53.2151,237.2944,84.2592,275.8567,0.00023839,3.509e-05,0.0,0 STARLINK-3161,1 49422U 21104Q   23360.94017942  .00003509  00000-0  23839-3 0  9994,2 49422  53.2151 237.2944 0001461  84.2592 275.8567 15.08848158117280,6917.855,95.437,540.731,538.71,0.0
49422.0,STARLINK-3161,PAYLOAD,2023-12-27 01:44:37,15.08850293,0.0001477,53.2156,236.6976,97.4948,262.6211,0.00030561,4.581e-05,0.0,0 STARLINK-3161,1 49422U 21104Q   23361.07265794  .00004581  00000-0  30561-3 0  9990,2 49422  53.2156 236.6976 0001477  97.4948 262.6211 15.08850293118410,6917.849,95.437,540.736,538.692,0.0
49422.0,STARLINK-3161,PAYLOAD,2023-12-27 19:13:52,15.08842866,0.0001696,53.2162,233.4222,103.8615,256.2566,0.00017044,2.426e-05,0.0,0 STARLINK-3161,1 49422U 21104Q   23361.80130092  .00002426  00000-0  17044-3 0  9990,2 49422  53.2162 233.4222 0001696 103.8615 256.2566 15.08842866118523,6917.872,95.437,540.91,538.563,0.0
49422.0,STARLINK-3161,PAYLOAD,2023-12-27 20:49:15,15.08841176,0.0001686,53.2164,233.1246,108.0776,252.04,0.0001119,1.493e-05,0.0,0 STARLINK-3161,1 49422U 21104Q   23361.86754074  .00001493  00000-0  11190-3 0  9997,2 49422  53.2164 233.1246 0001686 108.0776 252.0400 15.08841176117424,6917.877,95.437,540.908,538.575,0.0
49422.0,STARLINK-3161,PAYLOAD,2023-12-28 22:15:25,15.08841417,0.000151,53.2166,228.3687,110.0007,250.1148,2.1193e-05,4.9e-07,0.0,0 STARLINK-3161,1 49422U 21104Q   23362.92738152  .00000049  00000-0  21193-4 0  9995,2 49422  53.2166 228.3687 0001510 110.0007 250.1148 15.08841417117580,6917.876,95.437,540.786,538.696,0.0
49422.0,STARLINK-3161,PAYLOAD,2023-12-29 20:30:49,15.08836013,0.0001364,53.2162,224.2075,106.7267,253.3875,6.2215e-05,7.02e-06,0.0,0 STARLINK-3161,1 49422U 21104Q   23363.85474531  .00000702  00000-0  62215-4 0  9992,2 49422  53.2162 224.2075 0001364 106.7267 253.3875 15.08836013117723,6917.893,95.438,540.701,538.814,0.0
